#aV2006 10  4  0  0   .00000000      96 DD+AD WGS84 FIT  NGA
## 1395 259200.00000000   900.00000000 54012  .0000000000000
+   30     1  2  3  4  5  6  7  8  9 10 11 13 14 15 16 17 18
+         19 20 21 22 23 24 25 26 27 28 29 30 31  0  0  0  0
+          0  0  0  0  0  0  0  0  0  0  0  0  0  0  0  0  0
+          0  0  0  0  0  0  0  0  0  0  0  0  0  0  0  0  0
+          0  0  0  0  0  0  0  0  0  0  0  0  0  0  0  0  0
++         0  0  0  0  0  0  0  0  0  0  0  0  0  0  0  0  0
++         0  0  0  0  0  0  0  0  0  0  0  0  0  0  0  0  0
++         0  0  0  0  0  0  0  0  0  0  0  0  0  0  0  0  0
++         0  0  0  0  0  0  0  0  0  0  0  0  0  0  0  0  0
++         0  0  0  0  0  0  0  0  0  0  0  0  0  0  0  0  0
%c cc cc ccc ccc cccc cccc cccc cccc ccccc ccccc ccccc ccccc
%c cc cc ccc ccc cccc cccc cccc cccc ccccc ccccc ccccc ccccc
%f  0.0000000  0.000000000  0.00000000000  0.000000000000000
%f  0.0000000  0.000000000  0.00000000000  0.000000000000000
%i    0    0    0    0      0      0      0      0         0
%i    0    0    0    0      0      0      0      0         0
/*      NGA, ST. LOUIS,MO.                                  
/*   EPHEMERIS COMPUTED FROM  3 DAYS OF DATA                
/* CCCCCCCCCCCCCCCCCCCCCCCCCCCCCCCCCCCCCCCCCCCCCCCCCCCCCCCCC
/* CCCCCCCCCCCCCCCCCCCCCCCCCCCCCCCCCCCCCCCCCCCCCCCCCCCCCCCCC
*  2006 10  4 12 45   .00000000                                                 
P  1  -5967.324569 -14045.310974  21946.773093     80.538085                    
V  1  27209.478149  -2234.892954   5959.183708       .024284                    
P  2  12085.190142  23041.056430   5683.741434     41.401455                    
V  2  -6830.707805  -4247.176842  30223.582867       .038110                    
P  3 -11462.814755 -13155.973987 -20281.905807    225.728319                    
V  3  24648.039059  -6246.632748  -9645.304300       .700033                    
P  4    531.901264  20805.072207  16251.823241    319.391330                    
V  4 -14063.520640 -15630.775087  20767.473925       .052796                    
P  5  15516.838848   2542.600840  21173.001350    358.492197                    
V  5  -8420.639701  26188.518823   3153.109980       .065141                    
P  6  25125.262682  -7229.399768  -4667.092825    586.767022                    
V  6   6630.484223   2600.057987  30359.837359      -.067216                    
P  7   6709.082198 -15993.928462 -19801.523330    518.582284                    
V  7  25791.863066  -3199.996563  11045.180406      -.052612                    
P  8  -7324.227594  14603.474217 -20986.705506    -81.882851                    
V  8 -15526.411999 -21359.847482  -9925.103194      -.012434                    
P  9  20077.063439  14277.160944   9668.991119     38.795506                    
V  9   6242.774087  11691.927079 -28298.895963       .016200                    
P 10   4503.402687  19153.896635 -17786.211624     90.599631                    
V 10 -10889.453835  19735.448040  18897.535395       .005399                    
P 11 -22277.254710  -9303.624009  11286.240273    353.516523                    
V 11  -7604.031922 -12957.301459 -25244.491059       .019081                    
P 13 -24797.850819   6597.266333  -6866.675108    100.174070                    
V 13  -8692.360721   -977.238416  30901.258511       .034577                    
P 14  11609.179329 -14012.504885  19393.679451     -4.212479                    
V 14  24404.037815  -1430.777389 -15770.822430       .008341                    
P 15   6994.777672 -15746.404858 -20232.000378    -10.216930                    
V 15  14700.754093  20913.427871 -11693.902483      -.077106                    
P 16  -1711.310884 -21733.966996 -15012.571644     78.964535                    
V 16   9784.944072 -16699.417020  23061.597325       .034847                    
P 17 -11957.130479  14503.418326  18719.142117     93.876969                    
V 17 -23836.420392   1142.385886 -16210.197995      -.010910                    
P 18  17149.294927 -16143.099253 -11827.947290   -250.312736                    
V 18  -4242.140485  14998.742103 -26664.366572      -.007131                    
P 19 -20580.134198  -8910.849156 -14185.382038     21.289174                    
V 19  18028.494652  -3111.592601 -23950.561415       .033886                    
P 20 -16550.057471   1755.652531  20606.095829    -22.203162                    
V 20   9419.731063 -24666.151281   9653.964340       .001842                    
P 21  13229.929013  -8269.261281 -21413.703857     55.619099                    
V 21  15681.712465  22547.737290    433.074548       .017316                    
P 22  11603.475938 -23875.757040    328.630130    139.285474                    
V 22   2845.115967   1162.103582 -31612.165535       .027676                    
P 23 -26226.325582   -242.704542   4715.443271    138.392768                    
V 23   5754.889082  -3010.777659  31077.736820       .003957                    
P 24  -1920.199861  19718.393023  17788.675622     41.170652                    
V 24 -13785.253239 -17562.848494  18479.347178       .030400                    
P 25  -7576.939318 -22099.471528  12891.521768    364.638700                    
V 25  12342.703110  10158.492691  25605.133313       .186139                    
P 26  19955.075470   8795.147875 -15961.985924   -279.814550                    
V 26 -19100.482872   2430.285227 -22579.034216      -.151886                    
P 27 -14231.883084   5955.669458 -21041.186638     71.095058                    
V 27 -17771.477018 -21817.103492   5385.163684       .018725                    
P 28 -13099.763174  22559.945455  -3552.453711     17.267307                    
V 28   -775.601140  -5774.016943 -31553.906067      -.007358                    
P 29  17042.087307   9771.262232 -17794.227449     27.183159                    
V 29 -22586.004905   3763.404103 -19024.786833       .513569                    
P 30  17174.655306 -11569.272788  16268.697143     12.095722                    
V 30  -5640.716074  20678.960325  20402.674022       .011888                    
P 31    299.947860 -20242.272547  17595.254902    -95.721629                    
V 31  14290.563189  16664.835868  18773.991272       .289646                    
EOF
